NOAA 15                 
1 25338U 98030A   25029.47573195  .00000414  00000+0  18820-3 0  9990
2 25338  98.5495  57.6771 0010673  28.7356 331.4410 14.26869698389706
DMSP 5D-3 F16 (USA 172) 
1 28054U 03048A   25029.50220616  .00000361  00000+0  21301-3 0  9993
2 28054  99.0196  44.1132 0008086 129.4208 357.2644 14.14268770 98264
NOAA 18                 
1 28654U 05018A   25029.46161023  .00000435  00000+0  25421-3 0  9998
2 28654  98.8543 110.3710 0014937 139.5028 220.7258 14.13500950 15223
METEOSAT-9 (MSG-2)      
1 28912U 05049B   25029.19163560  .00000133  00000+0  00000+0 0  9994
2 28912   8.2069  58.9123 0000233 200.9703 343.4273  1.00270822 70023
EWS-G1 (GOES 13)        
1 29155U 06018A   25028.79483760 -.00000018  00000+0  00000+0 0  9996
2 29155   3.2153  82.6090 0065608 259.5801 279.2401  0.98831062 38269
DMSP 5D-3 F17 (USA 191) 
1 29522U 06050A   25029.52470667  .00000369  00000+0  21390-3 0  9991
2 29522  98.7422  41.4309 0010878  57.9175 302.3053 14.14737457941196
FENGYUN 3A              
1 32958U 08026A   25029.55210523  .00000378  00000+0  20022-3 0  9990
2 32958  98.6336 336.4733 0009426 134.3168 225.8783 14.19353110864067
NOAA 19                 
1 33591U 09005A   25029.51755474  .00000353  00000+0  21266-3 0  9991
2 33591  99.0169  93.3905 0013903  17.9953 342.1708 14.13271940823590
GOES 14                 
1 35491U 09033A   25029.18105223 -.00000061  00000+0  00000+0 0  9993
2 35491   0.3726  90.4545 0001506 154.0417 201.3715  1.00275108 57109
DMSP 5D-3 F18 (USA 210) 
1 35951U 09057A   25029.50762403  .00000573  00000+0  32171-3 0  9990
2 35951  98.8442   8.2025 0010110 241.0435 118.9724 14.14485802788359
EWS-G2 (GOES 15)        
1 36411U 10008A   25029.19485017  .00000045  00000+0  00000+0 0  9994
2 36411   0.0035 318.3324 0005531 311.9258 350.1991  1.00277257 54583
COMS 1                  
1 36744U 10032A   25029.42235845 -.00000337  00000+0  00000+0 0  9993
2 36744   3.5159  82.0111 0000898 250.1244  76.9890  1.00272157 53603
FENGYUN 3B              
1 37214U 10059A   25029.56619338  .00000227  00000+0  14146-3 0  9990
2 37214  99.0321  66.5715 0022363 170.4663 342.9118 14.14669753736253
SUOMI NPP               
1 37849U 11061A   25029.51023769  .00000240  00000+0  13467-3 0  9990
2 37849  98.7459 330.3157 0001048  18.9341 341.1874 14.19546949686972
METEOSAT-10 (MSG-3)     
1 38552U 12035B   25028.89683530  .00000003  00000+0  00000+0 0  9994
2 38552   3.4821  61.9706 0001557 235.3921 154.0037  1.00268002 46161
METOP-B                 
1 38771U 12049A   25029.47231601  .00000324  00000+0  16770-3 0  9996
2 38771  98.5985  87.2562 0001454  65.6417 294.4913 14.21421005641693
INSAT-3D                
1 39216U 13038B   25028.92246505 -.00000329  00000+0  00000+0 0  9999
2 39216   0.6187  89.7471 0002741 207.9072 292.3550  1.00273983 42243
FENGYUN 3C              
1 39260U 13052A   25029.53357311  .00000286  00000+0  16716-3 0  9996
2 39260  98.4443  23.2843 0015410  37.5901 322.6348 14.15549596587379
METEOR-M 2              
1 40069U 14037A   25029.53526270  .00000340  00000+0  17549-3 0  9997
2 40069  98.4562  19.8983 0006825  65.3426 294.8462 14.21203942547773
HIMAWARI-8              
1 40267U 14060A   25028.92472396 -.00000265  00000+0  00000+0 0  9991
2 40267   0.0150 113.2807 0000645 223.0107 265.7205  1.00269560 37803
FENGYUN 2G              
1 40367U 14090A   25028.73356505 -.00000294  00000+0  00000+0 0  9999
2 40367   4.3540  78.9481 0001182 121.7716 290.9854  1.00279058 36943
METEOSAT-11 (MSG-4)     
1 40732U 15034A   25028.89874667  .00000075  00000+0  00000+0 0  9991
2 40732   1.9389  71.9763 0001574 186.8444 202.7295  1.00280332 34950
ELEKTRO-L 2             
1 41105U 15074A   25028.89396824 -.00000109  00000+0  00000+0 0  9993
2 41105   5.4158  76.7427 0003608 212.1422 146.8528  1.00270831 33440
INSAT-3DR               
1 41752U 16054A   25028.12559706 -.00000065  00000+0  00000+0 0  9997
2 41752   0.1151  92.9644 0012954 182.9590 330.9110  1.00271813 30753
HIMAWARI-9              
1 41836U 16064A   25028.78137112 -.00000265  00000+0  00000+0 0  9998
2 41836   0.0174 206.6524 0001194 139.8656 203.8364  1.00268413 30154
GOES 16                 
1 41866U 16071A   25029.09624081 -.00000238  00000+0  00000+0 0  9990
2 41866   0.0139 263.8147 0001738  78.1544 106.0821  1.00268517 30044
FENGYUN 4A              
1 41882U 16077A   25021.48357438 -.00000176  00000+0  00000+0 0  9999
2 41882   1.0146  85.6565 0011073 343.9543 311.7920  1.00265548 29796
CYGFM05                 
1 41884U 16078A   25029.10520445  .00021276  00000+0  59790-3 0  9996
2 41884  34.9629 302.3074 0007489 105.4429 254.7116 15.35575021450821
CYGFM04                 
1 41885U 16078B   25029.07047402  .00021133  00000+0  57086-3 0  9998
2 41885  34.9372 283.9284 0006386 126.9240 233.2064 15.36808026450995
CYGFM02                 
1 41886U 16078C   25029.08800580  .00022871  00000+0  60170-3 0  9992
2 41886  34.9454 285.1621 0008537 116.9114 243.2478 15.37594269451000
CYGFM01                 
1 41887U 16078D   25028.86211126  .00060208  00000+0  16703-2 0  9998
2 41887  34.9469 307.9864 0007221  84.1334 276.0207 15.35778885450614
CYGFM08                 
1 41888U 16078E   25028.85245324  .00019808  00000+0  53885-3 0  9998
2 41888  34.9481 293.8936 0009012 113.6893 246.4771 15.36579460450818
CYGFM07                 
1 41890U 16078G   25028.77408960  .00019847  00000+0  53260-3 0  9999
2 41890  34.9494 285.0562 0006993 132.8148 227.3158 15.37017864450806
CYGFM03                 
1 41891U 16078H   25028.89252506  .00021851  00000+0  58942-3 0  9996
2 41891  34.9447 285.7075 0005928 112.1351 247.9997 15.36850085450803
FENGYUN 3D              
1 43010U 17072A   25029.50595473  .00000290  00000+0  15893-3 0  9990
2 43010  98.9442 351.8760 0002440  64.0150 296.1277 14.19553829373523
NOAA 20 (JPSS-1)        
1 43013U 17073A   25029.52625745  .00000198  00000+0  11469-3 0  9994
2 43013  98.7300 329.8756 0000516   5.7223 354.3958 14.19546310373016
GOES 17                 
1 43226U 18022A   25029.43035517 -.00000082  00000+0  00000+0 0  9995
2 43226   0.0208  90.6205 0003089 189.3685 259.1808  1.00269891 25388
FENGYUN 2H              
1 43491U 18050A   25028.76964225 -.00000118  00000+0  00000+0 0  9992
2 43491   1.7271  85.1200 0000952 198.7447 200.6864  1.00269012 24387
METOP-C                 
1 43689U 18087A   25029.44068681  .00000319  00000+0  16567-3 0  9999
2 43689  98.6940  91.7162 0002022 137.9259 222.2074 14.21491810323262
GEO-KOMPSAT-2A          
1 43823U 18100A   25028.04493781 -.00000331  00000+0  00000+0 0  9999
2 43823   0.0138 106.1277 0000999 303.5127 222.3315  1.00270555 22564
METEOR-M2 2             
1 44387U 19038A   25029.54122649  .00000299  00000+0  14976-3 0  9997
2 44387  98.8587   6.0485 0002044  56.1970 303.9403 14.24128270289602
ARKTIKA-M 1             
1 47719U 21016A   25024.07332045  .00000076  00000+0  00000+0 0  9996
2 47719  63.1319 125.7466 7035103 268.4806  17.2383  2.00620033 28579
FENGYUN 3E              
1 49008U 21062A   25029.56349433  .00000073  00000+0  54892-4 0  9998
2 49008  98.7404  33.8947 0002653  96.4413 263.7065 14.19836821185110
GOES 18                 
1 51850U 22021A   25028.41646799  .00000108  00000+0  00000+0 0  9996
2 51850   0.0046 114.2207 0000461 275.5393 111.0698  1.00270907 10747
NOAA 21 (JPSS-2)        
1 54234U 22150A   25028.85764546  .00000280  00000+0  15355-3 0  9991
2 54234  98.7152 329.7279 0001172 153.0952 207.0285 14.19600409114999
METEOSAT-12 (MTG-I1)    
1 54743U 22170C   25029.18251314  .00000003  00000+0  00000+0 0  9999
2 54743   0.6031  36.7089 0001668 256.9815 260.4426  1.00269917  7911
TIANMU-1 03             
1 55973U 23039A   25029.44438519  .00019927  00000+0  67469-3 0  9994
2 55973  97.4843 186.2360 0005152  99.1505 261.0319 15.30612233103365
TIANMU-1 04             
1 55974U 23039B   25029.47448842  .00019096  00000+0  64317-3 0  9994
2 55974  97.4770 185.6429 0006125  96.4587 263.7351 15.30786687103365
TIANMU-1 05             
1 55975U 23039C   25029.47772291  .00019039  00000+0  64514-3 0  9999
2 55975  97.4816 186.0708 0004762 114.5424 245.6314 15.30598249103351
TIANMU-1 06             
1 55976U 23039D   25029.49264638  .00019657  00000+0  66009-3 0  9990
2 55976  97.4830 186.3244 0005235 112.8846 247.2948 15.30881557103360
METEOR-M2 3             
1 57166U 23091A   25029.44761156  .00000084  00000+0  55790-4 0  9993
2 57166  98.6824  87.7329 0003964 178.6272 181.4919 14.23972937 82825
TIANMU-1 07             
1 57399U 23101A   25029.47825758  .00011814  00000+0  51308-3 0  9998
2 57399  97.3324  86.6719 0005914 111.1916 248.9953 15.22442057 84799
TIANMU-1 08             
1 57400U 23101B   25029.51106627  .00011230  00000+0  48745-3 0  9996
2 57400  97.3311  86.5494 0007948 116.7740 243.4310 15.22461680 84792
TIANMU-1 09             
1 57401U 23101C   25029.49556815  .00011716  00000+0  50840-3 0  9990
2 57401  97.3267  86.2393 0007752 114.2113 245.9934 15.22461603 84792
TIANMU-1 10             
1 57402U 23101D   25029.52808686  .00010923  23706-7  47203-3 0  9995
2 57402  97.3347  86.7851 0009833 113.7244 246.5026 15.22481483 84794
FENGYUN 3F              
1 57490U 23111A   25029.50090305  .00000234  00000+0  13095-3 0  9992
2 57490  98.7438 102.2688 0001645 124.2920 235.8412 14.19984417 77387
ARKTIKA-M 2             
1 58584U 23198A   25025.30676120  .00000190  00000+0  00000+0 0  9990
2 58584  63.2366 210.1351 6899364 269.3443  18.0364  2.00609129  8130
TIANMU-1 11             
1 58645U 23205A   25029.51980597  .00010384  00000+0  48772-3 0  9998
2 58645  97.3853  55.2442 0009886 346.5987  13.4984 15.19759804 60835
TIANMU-1 12             
1 58646U 23205B   25029.53755227  .00010147  00000+0  47699-3 0  9995
2 58646  97.3838  55.1446 0007732 341.0303  19.0643 15.19754561 60820
TIANMU-1 13             
1 58647U 23205C   25029.50386064  .00010479  00000+0  49219-3 0  9990
2 58647  97.3866  55.1948 0007569 318.2288  41.8369 15.19774698 60815
TIANMU-1 14             
1 58648U 23205D   25029.48818914  .00011207  00000+0  52628-3 0  9990
2 58648  97.3793  54.8230 0008273 321.7195  38.3452 15.19761055 60811
TIANMU-1 19             
1 58660U 23208A   25029.57030028  .00013043  00000+0  59324-3 0  9999
2 58660  97.4193 143.3413 0005134 300.6146  59.4582 15.20844728 60507
TIANMU-1 20             
1 58661U 23208B   25029.54430576  .00012376  00000+0  54325-3 0  9993
2 58661  97.4125 143.4551 0007940 310.6418  49.4128 15.22059801 60537
TIANMU-1 21             
1 58662U 23208C   25029.56184980  .00015272  00000+0  64042-3 0  9996
2 58662  97.4165 144.2422 0007503 309.4296  50.6276 15.23566952 60576
TIANMU-1 22             
1 58663U 23208D   25029.56258921  .00012844  00000+0  58149-3 0  9997
2 58663  97.4186 143.4345 0003968 332.6286  27.4740 15.21010796 60513
TIANMU-1 15             
1 58700U 24004A   25028.89230607  .00011053  00000+0  52031-3 0  9995
2 58700  97.4602 212.6200 0007793 347.2515  12.8521 15.19687305 58991
TIANMU-1 16             
1 58701U 24004B   25029.46813974  .00011287  00000+0  53146-3 0  9991
2 58701  97.4530 212.8560 0008131 347.2524  12.8504 15.19669437 59088
TIANMU-1 17             
1 58702U 24004C   25029.45430144  .00012268  00000+0  57865-3 0  9997
2 58702  97.4571 213.0930 0005899 345.1812  14.9249 15.19602432 59073
TIANMU-1 18             
1 58703U 24004D   25029.50115873  .00011347  00000+0  53439-3 0  9993
2 58703  97.4591 213.2656 0005817 336.9677  23.1296 15.19673530 59082
INSAT-3DS               
1 58990U 24033A   25028.77025042 -.00000146  00000+0  00000+0 0  9997
2 58990   0.0727 265.9720 0001464  61.7901 159.9139  1.00271334 42014
METEOR-M2 4             
1 59051U 24039A   25029.51945757  .00000116  00000+0  71461-4 0  9999
2 59051  98.6315 352.2243 0006909 179.6163 180.5022 14.22330145 47668
GOES 19                 
1 60133U 24119A   25029.35327156 -.00000174  00000+0  00000+0 0  9991
2 60133   0.0058 324.4207 0001666  13.8090 188.3170  1.00273092  2251
